[{"OBJECT_NAME":"COSMOS 2597 (RODNIK-S 22)","OBJECT_ID":"2025-273A","EPOCH":"2026-03-09T21:46:58.251360","MEAN_MOTION":12.42896743,"ECCENTRICITY":0.00124298,"INCLINATION":82.4965,"RA_OF_ASC_NODE":232.2436,"ARG_OF_PERICENTER":77.3959,"MEAN_ANOMALY":282.851,"EPHEMERIS_TYPE":0,"CLASSIFICATION_TYPE":"U","NORAD_CAT_ID":66647,"ELEMENT_SET_NO":999,"REV_AT_EPOCH":1296,"BSTAR":0.0001853085,"MEAN_MOTION_DOT":3.6e-7,"MEAN_MOTION_DDOT":0},{"OBJECT_NAME":"COSMOS 1038","OBJECT_ID":"1978-091E","EPOCH":"2026-03-09T22:29:37.834080","MEAN_MOTION":12.45932811,"ECCENTRICITY":0.00065144,"INCLINATION":74.0335,"RA_OF_ASC_NODE":284.5305,"ARG_OF_PERICENTER":281.6411,"MEAN_ANOMALY":184.1464,"EPHEMERIS_TYPE":0,"CLASSIFICATION_TYPE":"U","NORAD_CAT_ID":11047,"ELEMENT_SET_NO":999,"REV_AT_EPOCH":74847,"BSTAR":1.9314111e-5,"MEAN_MOTION_DOT":-1.3e-7,"MEAN_MOTION_DDOT":0}]
